COSMOS 2251 DEB         
1 33815U 93036BG  17345.94649248  .00000898  00000-0  30796-3 0  9990
2 33815  73.9876 272.3979 0058143 308.7812 121.9475 14.36706862460474
